KUIPER-00095            
1 65134U 25171C   25297.62497519  .00068653  00000+0  18282-2 0  9993
2 65134  51.8752  47.0946 0005239  39.6965 320.4405 15.37545195 12642
KUIPER-00096            
1 65135U 25171D   25297.82822278 -.00005850  00000+0 -17796-3 0  9992
2 65135  51.8782  46.2041 0007291  40.8434 319.3096 15.31423153 12677
KUIPER-00097            
1 65136U 25171E   25298.00002315 -.00946617  00000+0 -44762-1 0  9992
2 65136  51.8864  46.2670 0005518  33.1973  83.2539 15.21562824  5860
KUIPER-00098            
1 65137U 25171F   25298.00002315 -.00809807  00000+0 -44512-1 0  9995
2 65137  51.8894  46.7267 0006013  24.7973 268.5923 15.16411296  5515
KUIPER-00099            
1 65138U 25171G   25297.33722174  .00036998  00000+0  97431-3 0  9994
2 65138  51.8774  48.1839 0007178  36.8316 323.3163 15.38156920 12598
KUIPER-00100            
1 65139U 25171H   25297.73749028  .00060457  00000+0  15852-2 0  9999
2 65139  51.8760  46.3526 0005977  32.5263 327.6091 15.38075639 12657
KUIPER-00102            
1 65140U 25171J   25297.81972830  .00048017  00000+0  12790-2 0  9995
2 65140  51.8749  46.1476 0005722  36.4415 323.6961 15.37693552 12660
KUIPER-00103            
1 65141U 25171K   25298.00002315 -.00072692  00000+0 -72233-2 0  9996
2 65141  51.8969  50.9872 0007723  50.9042 305.4198 14.91561569  2590
